GLOBALSTAR M067         
1 32263U 07048A   24283.60878543 -.00000056  00000+0  30780-3 0  9997
2 32263  51.9742  49.1342 0001443 140.4006 232.8460 12.40656860778382
GLOBALSTAR M070         
1 32264U 07048B   24284.18455748 -.00000053  00000+0  28338-3 0  9993
2 32264  51.9739 170.1051 0000601  64.2078 107.1801 12.62302520783078
GLOBALSTAR M066         
1 32265U 07048C   24283.58622405 -.00000061  00000+0  25096-3 0  9990
2 32265  51.9697  36.8458 0001199  46.6162 326.1981 12.53547548785178
GLOBALSTAR M068         
1 32266U 07048D   24284.19078263 -.00000063  00000+0  22663-3 0  9995
2 32266  51.9911 344.3195 0000521 317.4456  77.5271 12.62802357786268
GLOBALSTAR M079         
1 37188U 10054A   24283.87982205 -.00000071  00000+0  18191-3 0  9998
2 37188  52.0028 181.7637 0001034  78.6855 357.8177 12.62265504644843
GLOBALSTAR M074         
1 37189U 10054B   24284.16248847 -.00000066  00000+0  21139-3 0  9999
2 37189  52.0009 180.2598 0000648  82.2051  82.3739 12.62257295645553
GLOBALSTAR M076         
1 37190U 10054C   24283.85566236 -.00000070  00000+0  18987-3 0  9993
2 37190  52.0018 181.3495 0000892  96.3219 348.6699 12.62271403645163
GLOBALSTAR M077         
1 37191U 10054D   24283.90571109 -.00000086  00000+0  98984-4 0  9998
2 37191  52.0055 137.9795 0000873  83.0589 290.6918 12.62265287645542
